ONEWEB-0716             
1 55177U 23004AP  24263.38418740  .00004126  00000+0  10584-1 0  9997
2 55177  87.9132 132.5347 0001585  84.1944 275.9369 13.17685830 83858
ONEWEB-0717             
1 55178U 23004AQ  24263.36646334  .00000058  00000+0  11724-3 0  9997
2 55178  87.9128 132.5016 0002212  55.3752 304.7588 13.17651329 83908
ONEWEB-0719             
1 55179U 23004AR  24263.37768491  .00005817  00000+0  14927-1 0  9992
2 55179  87.9134 132.4845 0001170  69.1924 290.9332 13.17706934 83851
ONEWEB-0530             
1 55796U 23029A   24263.33945915  .00000082  00000+0  16935-3 0  9990
2 55796  87.9243  40.9504 0001467  78.3184 281.8114 13.20771474 77924
ONEWEB-0534             
1 55797U 23029B   24262.79654900  .00000023  00000+0  23618-4 0  9993
2 55797  87.9241  41.0653 0001658 101.0614 259.0706 13.20773248 77143
ONEWEB-0556             
1 55798U 23029C   24262.80287155  .00000022  00000+0  22451-4 0  9993
2 55798  87.9240  41.0572 0000833  96.8556 263.2672 13.20769953 77140
ONEWEB-0562             
1 55799U 23029D   24262.86599463  .00000138  00000+0  30813-3 0  9996
2 55799  87.9244  41.0362 0001014  62.9246 297.1991 13.20774005 77159
ONEWEB-0563             
1 55800U 23029E   24262.93542926  .00000035  00000+0  55378-4 0  9999
2 55800  87.9244  41.0371 0001702 110.7474 249.3842 13.20772313 77830
